CCSDS_OMM_VERS = 2.0
CREATION_DATE  = 
ORIGINATOR     = 

OBJECT_NAME    = COSMOS 1933
OBJECT_ID      = 1988-020A
CENTER_NAME    = EARTH
REF_FRAME      = TEME
TIME_SYSTEM    = UTC
MEAN_ELEMENT_THEORY = SGP/SGP4

EPOCH          = 2026-02-11T14:50:12.927552
MEAN_MOTION    = 15.17755684
ECCENTRICITY   = .00029765
INCLINATION    = 82.5121
RA_OF_ASC_NODE = 276.7072
ARG_OF_PERICENTER = 308.0148
MEAN_ANOMALY   = 52.0816

EPHEMERIS_TYPE = 0
CLASSIFICATION_TYPE = U
NORAD_CAT_ID   = 18958
ELEMENT_SET_NO = 999
REV_AT_EPOCH   = 4627
BSTAR          = .17266621E-3
MEAN_MOTION_DOT = .3515E-4
MEAN_MOTION_DDOT = 0

CCSDS_OMM_VERS = 2.0
CREATION_DATE  = 
ORIGINATOR     = 

OBJECT_NAME    = SL-3 R/B
OBJECT_ID      = 1988-032B
CENTER_NAME    = EARTH
REF_FRAME      = TEME
TIME_SYSTEM    = UTC
MEAN_ELEMENT_THEORY = SGP/SGP4

EPOCH          = 2026-02-11T14:13:49.155456
MEAN_MOTION    = 15.19571005
ECCENTRICITY   = .00251242
INCLINATION    = 97.5151
RA_OF_ASC_NODE = 25.9517
ARG_OF_PERICENTER = 329.0651
MEAN_ANOMALY   = 30.9102

EPHEMERIS_TYPE = 0
CLASSIFICATION_TYPE = U
NORAD_CAT_ID   = 19046
ELEMENT_SET_NO = 999
REV_AT_EPOCH   = 4814
BSTAR          = .2869798E-3
MEAN_MOTION_DOT = .6085E-4
MEAN_MOTION_DDOT = 0

CCSDS_OMM_VERS = 2.0
CREATION_DATE  = 
ORIGINATOR     = 

OBJECT_NAME    = SL-16 R/B
OBJECT_ID      = 1988-039B
CENTER_NAME    = EARTH
REF_FRAME      = TEME
TIME_SYSTEM    = UTC
MEAN_ELEMENT_THEORY = SGP/SGP4

EPOCH          = 2026-02-11T15:03:13.983552
MEAN_MOTION    = 14.19611825
ECCENTRICITY   = .00211523
INCLINATION    = 71.0147
RA_OF_ASC_NODE = 123.6599
ARG_OF_PERICENTER = 13.9946
MEAN_ANOMALY   = 346.1761

EPHEMERIS_TYPE = 0
CLASSIFICATION_TYPE = U
NORAD_CAT_ID   = 19120
ELEMENT_SET_NO = 999
REV_AT_EPOCH   = 95468
BSTAR          = .52286914E-4
MEAN_MOTION_DOT = .63E-6
MEAN_MOTION_DDOT = 0

CCSDS_OMM_VERS = 2.0
CREATION_DATE  = 
ORIGINATOR     = 

OBJECT_NAME    = COSMOS 1953
OBJECT_ID      = 1988-050A
CENTER_NAME    = EARTH
REF_FRAME      = TEME
TIME_SYSTEM    = UTC
MEAN_ELEMENT_THEORY = SGP/SGP4

EPOCH          = 2026-02-11T08:52:18.770016
MEAN_MOTION    = 15.27998250
ECCENTRICITY   = .00107844
INCLINATION    = 82.5090
RA_OF_ASC_NODE = 184.7008
ARG_OF_PERICENTER = 212.7829
MEAN_ANOMALY   = 147.2743

EPHEMERIS_TYPE = 0
CLASSIFICATION_TYPE = U
NORAD_CAT_ID   = 19210
ELEMENT_SET_NO = 999
REV_AT_EPOCH   = 3376
BSTAR          = .45735159E-3
MEAN_MOTION_DOT = .12547E-3
MEAN_MOTION_DDOT = 0

CCSDS_OMM_VERS = 2.0
CREATION_DATE  = 
ORIGINATOR     = 

OBJECT_NAME    = SL-8 R/B
OBJECT_ID      = 1988-053B
CENTER_NAME    = EARTH
REF_FRAME      = TEME
TIME_SYSTEM    = UTC
MEAN_ELEMENT_THEORY = SGP/SGP4

EPOCH          = 2026-02-11T12:25:33.407328
MEAN_MOTION    = 14.38900087
ECCENTRICITY   = .00205291
INCLINATION    = 74.0483
RA_OF_ASC_NODE = 160.7032
ARG_OF_PERICENTER = 344.7225
MEAN_ANOMALY   = 90.5644

EPHEMERIS_TYPE = 0
CLASSIFICATION_TYPE = U
NORAD_CAT_ID   = 19257
ELEMENT_SET_NO = 999
REV_AT_EPOCH   = 97283
BSTAR          = .99162269E-4
MEAN_MOTION_DOT = .28E-5
MEAN_MOTION_DDOT = 0

CCSDS_OMM_VERS = 2.0
CREATION_DATE  = 
ORIGINATOR     = 

OBJECT_NAME    = COSMOS 1975
OBJECT_ID      = 1988-093A
CENTER_NAME    = EARTH
REF_FRAME      = TEME
TIME_SYSTEM    = UTC
MEAN_ELEMENT_THEORY = SGP/SGP4

EPOCH          = 2026-02-10T16:12:56.652480
MEAN_MOTION    = 15.27594141
ECCENTRICITY   = .00103381
INCLINATION    = 82.5220
RA_OF_ASC_NODE = 144.7854
ARG_OF_PERICENTER = 264.4267
MEAN_ANOMALY   = 95.5793

EPHEMERIS_TYPE = 0
CLASSIFICATION_TYPE = U
NORAD_CAT_ID   = 19573
ELEMENT_SET_NO = 999
REV_AT_EPOCH   = 1528
BSTAR          = .33751435E-3
MEAN_MOTION_DOT = .9151E-4
MEAN_MOTION_DDOT = 0

CCSDS_OMM_VERS = 2.0
CREATION_DATE  = 
ORIGINATOR     = 

OBJECT_NAME    = SL-14 R/B
OBJECT_ID      = 1988-093B
CENTER_NAME    = EARTH
REF_FRAME      = TEME
TIME_SYSTEM    = UTC
MEAN_ELEMENT_THEORY = SGP/SGP4

EPOCH          = 2026-02-11T13:09:28.848384
MEAN_MOTION    = 14.85626329
ECCENTRICITY   = .00220673
INCLINATION    = 82.5279
RA_OF_ASC_NODE = 66.5906
ARG_OF_PERICENTER = 122.4193
MEAN_ANOMALY   = 39.5391

EPHEMERIS_TYPE = 0
CLASSIFICATION_TYPE = U
NORAD_CAT_ID   = 19574
ELEMENT_SET_NO = 999
REV_AT_EPOCH   = 99715
BSTAR          = .5107066E-4
MEAN_MOTION_DOT = .469E-5
MEAN_MOTION_DDOT = 0

CCSDS_OMM_VERS = 2.0
CREATION_DATE  = 
ORIGINATOR     = 

OBJECT_NAME    = SL-16 R/B
OBJECT_ID      = 1988-102B
CENTER_NAME    = EARTH
REF_FRAME      = TEME
TIME_SYSTEM    = UTC
MEAN_ELEMENT_THEORY = SGP/SGP4

EPOCH          = 2026-02-11T15:05:20.653728
MEAN_MOTION    = 14.16148968
ECCENTRICITY   = .00125938
INCLINATION    = 70.9980
RA_OF_ASC_NODE = 206.3275
ARG_OF_PERICENTER = 44.3535
MEAN_ANOMALY   = 315.8594

EPHEMERIS_TYPE = 0
CLASSIFICATION_TYPE = U
NORAD_CAT_ID   = 19650
ELEMENT_SET_NO = 999
REV_AT_EPOCH   = 92320
BSTAR          = .18236258E-3
MEAN_MOTION_DOT = .313E-5
MEAN_MOTION_DDOT = 0

CCSDS_OMM_VERS = 2.0
CREATION_DATE  = 
ORIGINATOR     = 

OBJECT_NAME    = INTERCOSMOS 24
OBJECT_ID      = 1989-080A
CENTER_NAME    = EARTH
REF_FRAME      = TEME
TIME_SYSTEM    = UTC
MEAN_ELEMENT_THEORY = SGP/SGP4

EPOCH          = 2026-02-11T14:11:35.836800
MEAN_MOTION    = 12.59521381
ECCENTRICITY   = .11878659
INCLINATION    = 82.6064
RA_OF_ASC_NODE = 121.3923
ARG_OF_PERICENTER = 353.4321
MEAN_ANOMALY   = 5.2298

EPHEMERIS_TYPE = 0
CLASSIFICATION_TYPE = U
NORAD_CAT_ID   = 20261
ELEMENT_SET_NO = 999
REV_AT_EPOCH   = 66351
BSTAR          = .15021778E-3
MEAN_MOTION_DOT = .52E-5
MEAN_MOTION_DDOT = 0

CCSDS_OMM_VERS = 2.0
CREATION_DATE  = 
ORIGINATOR     = 

OBJECT_NAME    = SL-14 R/B
OBJECT_ID      = 1989-080C
CENTER_NAME    = EARTH
REF_FRAME      = TEME
TIME_SYSTEM    = UTC
MEAN_ELEMENT_THEORY = SGP/SGP4

EPOCH          = 2026-02-11T09:21:22.595040
MEAN_MOTION    = 12.50460907
ECCENTRICITY   = .12295034
INCLINATION    = 82.5948
RA_OF_ASC_NODE = 190.0684
ARG_OF_PERICENTER = 244.8858
MEAN_ANOMALY   = 101.9861

EPHEMERIS_TYPE = 0
CLASSIFICATION_TYPE = U
NORAD_CAT_ID   = 20262
ELEMENT_SET_NO = 999
REV_AT_EPOCH   = 65686
BSTAR          = .14965747E-3
MEAN_MOTION_DOT = .495E-5
MEAN_MOTION_DDOT = 0

CCSDS_OMM_VERS = 2.0
CREATION_DATE  = 
ORIGINATOR     = 

OBJECT_NAME    = DELTA 1 R/B
OBJECT_ID      = 1989-089B
CENTER_NAME    = EARTH
REF_FRAME      = TEME
TIME_SYSTEM    = UTC
MEAN_ELEMENT_THEORY = SGP/SGP4

EPOCH          = 2026-02-11T14:47:52.811808
MEAN_MOTION    = 14.50641249
ECCENTRICITY   = .00684433
INCLINATION    = 97.0724
RA_OF_ASC_NODE = 254.1988
ARG_OF_PERICENTER = 204.0010
MEAN_ANOMALY   = 155.7994

EPHEMERIS_TYPE = 0
CLASSIFICATION_TYPE = U
NORAD_CAT_ID   = 20323
ELEMENT_SET_NO = 999
REV_AT_EPOCH   = 89195
BSTAR          = .10421304E-3
MEAN_MOTION_DOT = .386E-5
MEAN_MOTION_DDOT = 0

CCSDS_OMM_VERS = 2.0
CREATION_DATE  = 
ORIGINATOR     = 

OBJECT_NAME    = ARIANE 40 R/B
OBJECT_ID      = 1990-005H
CENTER_NAME    = EARTH
REF_FRAME      = TEME
TIME_SYSTEM    = UTC
MEAN_ELEMENT_THEORY = SGP/SGP4

EPOCH          = 2026-02-11T14:45:55.814976
MEAN_MOTION    = 14.39852855
ECCENTRICITY   = .00089192
INCLINATION    = 98.3143
RA_OF_ASC_NODE = 104.0462
ARG_OF_PERICENTER = 284.4573
MEAN_ANOMALY   = 75.5625

EPHEMERIS_TYPE = 0
CLASSIFICATION_TYPE = U
NORAD_CAT_ID   = 20443
ELEMENT_SET_NO = 999
REV_AT_EPOCH   = 88905
BSTAR          = .10180716E-3
MEAN_MOTION_DOT = .277E-5
MEAN_MOTION_DDOT = 0

