COSMOS 1933             
1 18958U 88020A   26042.61820518  .00003515  00000+0  17267-3 0  9993
2 18958  82.5121 276.7072 0002976 308.0148  52.0816 15.17755684 46271
SL-3 R/B                
1 19046U 88032B   26042.59293004  .00006085  00000+0  28698-3 0  9991
2 19046  97.5151  25.9517 0025124 329.0651  30.9102 15.19571005 48145
SL-16 R/B               
1 19120U 88039B   26042.62724518  .00000063  00000+0  52287-4 0  9996
2 19120  71.0147 123.6599 0021152  13.9946 346.1761 14.19611825954681
COSMOS 1953             
1 19210U 88050A   26042.36966169  .00012547  00000+0  45735-3 0  9999
2 19210  82.5090 184.7008 0010784 212.7829 147.2743 15.27998250 33763
SL-8 R/B                
1 19257U 88053B   26042.51774777  .00000280  00000+0  99162-4 0  9997
2 19257  74.0483 160.7032 0020529 344.7225  90.5644 14.38900087972833
COSMOS 1975             
1 19573U 88093A   26041.67565570  .00009151  00000+0  33751-3 0  9994
2 19573  82.5220 144.7854 0010338 264.4267  95.5793 15.27594141 15288
SL-14 R/B               
1 19574U 88093B   26042.54825056  .00000469  00000+0  51071-4 0  9999
2 19574  82.5279  66.5906 0022067 122.4193  39.5391 14.85626329997159
SL-16 R/B               
1 19650U 88102B   26042.62871127  .00000313  00000+0  18236-3 0  9997
2 19650  70.9980 206.3275 0012593  44.3535 315.8594 14.16148968923204
INTERCOSMOS 24          
1 20261U 89080A   26042.59138700  .00000520  00000+0  15022-3 0  9992
2 20261  82.6064 121.3923 1187865 353.4321   5.2298 12.59521381663511
SL-14 R/B               
1 20262U 89080C   26042.38984485  .00000495  00000+0  14966-3 0  9996
2 20262  82.5948 190.0684 1229503 244.8858 101.9861 12.50460907656860
DELTA 1 R/B             
1 20323U 89089B   26042.61658347  .00000386  00000+0  10421-3 0  9995
2 20323  97.0724 254.1988 0068443 204.0010 155.7994 14.50641249891958
ARIANE 40 R/B           
1 20443U 90005H   26042.61522934  .00000277  00000+0  10181-3 0  9992
2 20443  98.3143 104.0462 0008919 284.4573  75.5625 14.39852855889050
